{
  "type": "FeatureCollection",
  "features": [
    {
      "type": "Feature",
      "properties": {
        "norad_id": 66456,
        "name": "STARLINK-35643",
        "group": "last-30-days",
        "lat": -42.42544913730994,
        "lon": 19.261406358478055,
        "alt_km": 443.6738367676098,
        "timestamp": "2025-12-08T03:50:05.782913+00:00",
        "meta_object_name": "STARLINK-35643",
        "meta_object_id": "2025-262A",
        "meta_epoch": "2025-12-07T06:00:04.999968",
        "meta_mean_motion": 15.45377884,
        "meta_eccentricity": 0.00013484,
        "meta_inclination": 43.0012,
        "meta_ra_of_asc_node": 103.2611,
        "meta_arg_of_pericenter": 269.404,
        "meta_mean_anomaly": 348.2143,
        "meta_ephemeris_type": 0,
        "meta_classification_type": "U",
        "meta_norad_cat_id": 66456,
        "meta_element_set_no": 999,
        "meta_rev_at_epoch": 475,
        "meta_bstar": -0.046662534,
        "meta_mean_motion_dot": -0.0203169,
        "meta_mean_motion_ddot": 0,
        "tle_line1": "1 66456U 25262A   25341.25005787 -.02031690  00000+0 -46663-1 0  9991",
        "tle_line2": "2 66456  43.0012 103.2611 0001348 269.4040 348.2143 15.45377884  4757"
      },
      "geometry": {
        "type": "Point",
        "coordinates": [
          19.261406358478055,
          -42.42544913730994
        ]
      }
    },
    {
      "type": "Feature",
      "properties": {
        "norad_id": 66457,
        "name": "STARLINK-35466",
        "group": "last-30-days",
        "lat": -36.601796179038416,
        "lon": 45.100343913551995,
        "alt_km": 435.8431186786547,
        "timestamp": "2025-12-08T03:50:05.782923+00:00",
        "meta_object_name": "STARLINK-35466",
        "meta_object_id": "2025-262B",
        "meta_epoch": "2025-12-07T06:00:04.999968",
        "meta_mean_motion": 15.47991868,
        "meta_eccentricity": 0.00010581,
        "meta_inclination": 43.0008,
        "meta_ra_of_asc_node": 103.2309,
        "meta_arg_of_pericenter": 276.5943,
        "meta_mean_anomaly": 353.1305,
        "meta_ephemeris_type": 0,
        "meta_classification_type": "U",
        "meta_norad_cat_id": 66457,
        "meta_element_set_no": 999,
        "meta_rev_at_epoch": 475,
        "meta_bstar": -0.042321877,
        "meta_mean_motion_dot": -0.02020153,
        "meta_mean_motion_ddot": 0,
        "tle_line1": "1 66457U 25262B   25341.25005787 -.02020153  00000+0 -42322-1 0  9992",
        "tle_line2": "2 66457  43.0008 103.2309 0001058 276.5943 353.1305 15.47991868  4757"
      },
      "geometry": {
        "type": "Point",
        "coordinates": [
          45.100343913551995,
          -36.601796179038416
        ]
      }
    },
    {
      "type": "Feature",
      "properties": {
        "norad_id": 66458,
        "name": "STARLINK-35684",
        "group": "last-30-days",
        "lat": -40.00732625928066,
        "lon": 33.72331016260441,
        "alt_km": 439.87378755618283,
        "timestamp": "2025-12-08T03:50:05.782934+00:00",
        "meta_object_name": "STARLINK-35684",
        "meta_object_id": "2025-262C",
        "meta_epoch": "2025-12-07T06:00:04.999968",
        "meta_mean_motion": 15.46703002,
        "meta_eccentricity": 0.00010152,
        "meta_inclination": 43.001,
        "meta_ra_of_asc_node": 103.2441,
        "meta_arg_of_pericenter": 260.7362,
        "meta_mean_anomaly": 3.6108,
        "meta_ephemeris_type": 0,
        "meta_classification_type": "U",
        "meta_norad_cat_id": 66458,
        "meta_element_set_no": 999,
        "meta_rev_at_epoch": 475,
        "meta_bstar": -0.044035668,
        "meta_mean_motion_dot": -0.02010157,
        "meta_mean_motion_ddot": 0,
        "tle_line1": "1 66458U 25262C   25341.25005787 -.02010157  00000+0 -44036-1 0  9990",
        "tle_line2": "2 66458  43.0010 103.2441 0001015 260.7362   3.6108 15.46703002  4759"
      },
      "geometry": {
        "type": "Point",
        "coordinates": [
          33.72331016260441,
          -40.00732625928066
        ]
      }
    },
    {
      "type": "Feature",
      "properties": {
        "norad_id": 66459,
        "name": "STARLINK-35449",
        "group": "last-30-days",
        "lat": -32.85242140733948,
        "lon": 54.0592411970202,
        "alt_km": 431.94567111696506,
        "timestamp": "2025-12-08T03:50:05.782944+00:00",
        "meta_object_name": "STARLINK-35449",
        "meta_object_id": "2025-262D",
        "meta_epoch": "2025-12-07T06:00:04.999968",
        "meta_mean_motion": 15.49401073,
        "meta_eccentricity": 0.00013158,
        "meta_inclination": 43.0006,
        "meta_ra_of_asc_node": 103.2204,
        "meta_arg_of_pericenter": 258.2916,
        "meta_mean_anomaly": 15.2391,
        "meta_ephemeris_type": 0,
        "meta_classification_type": "U",
        "meta_norad_cat_id": 66459,
        "meta_element_set_no": 999,
        "meta_rev_at_epoch": 475,
        "meta_bstar": -0.041355578,
        "meta_mean_motion_dot": -0.02069223,
        "meta_mean_motion_ddot": 0,
        "tle_line1": "1 66459U 25262D   25341.25005787 -.02069223  00000+0 -41356-1 0  9991",
        "tle_line2": "2 66459  43.0006 103.2204 0001315 258.2916  15.2391 15.49401073  4751"
      },
      "geometry": {
        "type": "Point",
        "coordinates": [
          54.0592411970202,
          -32.85242140733948
        ]
      }
    },
    {
      "type": "Feature",
      "properties": {
        "norad_id": 66460,
        "name": "STARLINK-35424",
        "group": "last-30-days",
        "lat": -29.273784609179906,
        "lon": 60.926525439840105,
        "alt_km": 427.55456569863054,
        "timestamp": "2025-12-08T03:50:05.782954+00:00",
        "meta_object_name": "STARLINK-35424",
        "meta_object_id": "2025-262E",
        "meta_epoch": "2025-12-07T06:00:04.999968",
        "meta_mean_motion": 15.50717358,
        "meta_eccentricity": 0.00014933,
        "meta_inclination": 43.0007,
        "meta_ra_of_asc_node": 103.2147,
        "meta_arg_of_pericenter": 263.8719,
        "meta_mean_anomaly": 12.1247,
        "meta_ephemeris_type": 0,
        "meta_classification_type": "U",
        "meta_norad_cat_id": 66460,
        "meta_element_set_no": 999,
        "meta_rev_at_epoch": 475,
        "meta_bstar": -0.038781991,
        "meta_mean_motion_dot": -0.02038036,
        "meta_mean_motion_ddot": 0,
        "tle_line1": "1 66460U 25262E   25341.25005787 -.02038036  00000+0 -38782-1 0  9990",
        "tle_line2": "2 66460  43.0007 103.2147 0001493 263.8719  12.1247 15.50717358  4754"
      },
      "geometry": {
        "type": "Point",
        "coordinates": [
          60.926525439840105,
          -29.273784609179906
        ]
      }
    },
    {
      "type": "Feature",
      "properties": {
        "norad_id": 66461,
        "name": "STARLINK-35132",
        "group": "last-30-days",
        "lat": -25.284185865418138,
        "lon": 67.432682363609,
        "alt_km": 418.84038826236247,
        "timestamp": "2025-12-08T03:50:05.782964+00:00",
        "meta_object_name": "STARLINK-35132",
        "meta_object_id": "2025-262F",
        "meta_epoch": "2025-12-07T06:00:04.999968",
        "meta_mean_motion": 15.50732645,
        "meta_eccentricity": 0.00017996,
        "meta_inclination": 43.0007,
        "meta_ra_of_asc_node": 103.21,
        "meta_arg_of_pericenter": 255.107,
        "meta_mean_anomaly": 22.7939,
        "meta_ephemeris_type": 0,
        "meta_classification_type": "U",
        "meta_norad_cat_id": 66461,
        "meta_element_set_no": 999,
        "meta_rev_at_epoch": 475,
        "meta_bstar": -0.0081990942,
        "meta_mean_motion_dot": -0.00456847,
        "meta_mean_motion_ddot": 0,
        "tle_line1": "1 66461U 25262F   25341.25005787 -.00456847  00000+0 -81991-2 0  9994",
        "tle_line2": "2 66461  43.0007 103.2100 0001799 255.1070  22.7939 15.50732645  4758"
      },
      "geometry": {
        "type": "Point",
        "coordinates": [
          67.432682363609,
          -25.284185865418138
        ]
      }
    },
    {
      "type": "Feature",
      "properties": {
        "norad_id": 66462,
        "name": "STARLINK-35499",
        "group": "last-30-days",
        "lat": -23.53465829240314,
        "lon": 70.01767996454497,
        "alt_km": 416.5539819096257,
        "timestamp": "2025-12-08T03:50:05.782976+00:00",
        "meta_object_name": "STARLINK-35499",
        "meta_object_id": "2025-262G",
        "meta_epoch": "2025-12-07T06:00:04.999968",
        "meta_mean_motion": 15.50537296,
        "meta_eccentricity": 0.00015518,
        "meta_inclination": 43.0009,
        "meta_ra_of_asc_node": 103.204,
        "meta_arg_of_pericenter": 255.556,
        "meta_mean_anomaly": 24.297,
        "meta_ephemeris_type": 0,
        "meta_classification_type": "U",
        "meta_norad_cat_id": 66462,
        "meta_element_set_no": 999,
        "meta_rev_at_epoch": 475,
        "meta_bstar": 0.0011730991,
        "meta_mean_motion_dot": 0.00068985,
        "meta_mean_motion_ddot": 0,
        "tle_line1": "1 66462U 25262G   25341.25005787  .00068985  00000+0  11731-2 0  9990",
        "tle_line2": "2 66462  43.0009 103.2040 0001551 255.5560  24.2970 15.50537296  4755"
      },
      "geometry": {
        "type": "Point",
        "coordinates": [
          70.01767996454497,
          -23.53465829240314
        ]
      }
    }
  ]
}